COSMOS 2576             
1 59773U 24092A   26068.82603826  .00015211  00000+0  56283-3 0  9991
2 59773  97.4253 186.0053 0005946 159.7731 200.3745 15.27760963101271
STARLINK-34099          
1 63959U 25099H   26068.30304514  .00034984  00000+0  12723-2 0  9993
2 63959  43.0018 178.7135 0002673 282.2110  77.8442 15.27642428 47279
